RADFXSAT (FOX-1B)       
1 43017U 17073E   24161.21562018  .00011633  00000+0  72290-3 0  9998
2 43017  97.5791  36.9863 0209490 320.8063  37.8143 14.93336512354472
EAGLESAT 1              
1 43018U 17073F   24161.47864082  .00022288  00000+0  10768-2 0  9992
2 43018  97.5974  46.2208 0173030 291.9044  66.3865 15.06357458354936
JILIN-1 04              
1 43022U 17074A   24161.84504108  .00009916  00000+0  45577-3 0  9999
2 43022  97.4873 253.6479 0004996 301.1898  58.8847 15.20556217361414
JILIN-1 05              
1 43023U 17074B   24161.85574885  .00008913  00000+0  41161-3 0  9991
2 43023  97.4898 254.1702 0005475 320.9409  39.1430 15.20425129361425
JILIN-1 06              
1 43024U 17074C   24161.86452427  .00007511  00000+0  37380-3 0  9991
2 43024  97.4891 252.9786 0008361 326.1540  33.9159 15.17865016361359
IRIDIUM 116             
1 43072U 17083C   24161.83151564  .00000209  00000+0  67718-4 0  9995
2 43072  86.3959 270.1368 0002276  96.2965 263.8490 14.34219467338488
IRIDIUM 130             
1 43073U 17083D   24161.38119346  .00000187  00000+0  59682-4 0  9994
2 43073  86.3969 270.5289 0002241  97.2195 262.9255 14.34216143338368
LKW-2                   
1 43080U 17084A   24161.81486013  .00010982  00000+0  46568-3 0  9991
2 43080  97.2237 222.5902 0002196 217.5787 142.5297 15.23283900359396
SUPERVIEW-1 03          
1 43099U 18002A   24161.83161342  .00026060  00000+0  75859-3 0  9998
2 43099  97.3754 242.0718 0004534 103.2995 256.8754 15.35386981355482
SUPERVIEW-1 04          
1 43100U 18002B   24161.82745649  .00027189  00000+0  76022-3 0  9994
2 43100  97.3776 242.6532 0001373 141.6435 218.4907 15.36648344355504
CARTOSAT-2F             
1 43111U 18004A   24161.79593090  .00009489  00000+0  45310-3 0  9994
2 43111  97.4309 221.4036 0000701  71.9569 288.1742 15.19256972355379
CARBONITE 2             
1 43115U 18004E   24161.67015538  .00020609  00000+0  48634-3 0  9990
2 43115  97.2685 232.7392 0005006 303.0630  57.0137 15.41893731356781
CORVUS BC3              
1 43118U 18004H   24161.84217967  .01361961  13080-2  12965-2 0  9994
2 43118  97.2761 248.9954 0013586 262.1242  97.8501 16.12010824357789
LKW-3                   
1 43146U 18006A   24161.87196241  .00012952  00000+0  54873-3 0  9993
2 43146  97.5718 296.2522 0004013 181.1530 178.9698 15.23279222356188
ASNARO-2                
1 43152U 18007A   24161.85359351  .00020042  00000+0  86897-3 0  9992
2 43152  97.4116 168.6749 0001871  76.7795 283.3650 15.22396499355239
XIAOXIANG-2             
1 43155U 18008A   24161.87787909  .00134393  00000+0  16459-2 0  9993
2 43155  97.2349 215.7331 0006972 125.6376 234.5532 15.59892637353763
ZHOU ENLAI              
1 43156U 18008B   24161.76813844  .00274858  00000+0  19309-2 0  9998
2 43156  97.2361 217.5842 0004549 167.7016 192.4360 15.73347081353788
QUANTUTONG 1            
1 43158U 18008D   24161.69513672  .00064762  00000+0  12818-2 0  9997
2 43158  97.2542 210.2721 0008517 125.6213 234.5831 15.46828719353310
JILIN-1 07              
1 43159U 18008E   24161.88991333  .00009305  00000+0  44885-3 0  9995
2 43159  97.2443 195.4160 0012560 150.5585 209.6360 15.18831829352464
JILIN-1 08              
1 43160U 18008F   24161.83325731  .00009367  00000+0  45544-3 0  9996
2 43160  97.2448 195.0898 0009004 160.5422 199.6158 15.18587838352444
LEMUR-2-URAMCHANSOL     
1 43183U 18014D   24161.26302436  .00025307  00000+0  13261-2 0  9994
2 43183  97.5899  65.9360 0013245  21.2419 338.9360 15.15699201347646
LEMUR-2-KADI            
1 43184U 18014E   24161.29821410  .00016321  00000+0  91715-3 0  9993
2 43184  97.5695  63.9657 0011028   9.9455 350.1992 15.13327226347570
S-NET D                 
1 43186U 18014G   24161.27193826  .00007554  00000+0  54272-3 0  9991
2 43186  97.5925  63.2509 0011496  40.8514 319.3572 15.04508987347314
S-NET B                 
1 43187U 18014H   24161.27416959  .00007721  00000+0  55462-3 0  9995
2 43187  97.5930  63.2020 0012110  35.9018 324.3020 15.04501332347318
S-NET A                 
1 43188U 18014J   24161.27309977  .00007600  00000+0  54593-3 0  9997
2 43188  97.5934  63.3131 0012065  36.7399 323.4651 15.04509651347319
S-NET C                 
1 43189U 18014K   24161.27631513  .00007812  00000+0  56088-3 0  9998
2 43189  97.5951  63.2620 0013538  28.5444 331.6521 15.04502547345869
GOMX-4B                 
1 43196U 18015E   24161.54973257  .00061857  00000+0  68174-3 0  9999
2 43196  97.6063 334.5814 0006135 336.2628  23.8345 15.62902414354336
GOMX-4A                 
1 43197U 18015F   24161.72575359  .00116739  00000+0  79071-3 0  9999
2 43197  97.5960 339.7597 0004897 307.0527  53.0288 15.74646878354708
PAZ                     
1 43215U 18020A   24161.84353531  .00004671  00000+0  22540-3 0  9995
2 43215  97.4449 168.8133 0001708  87.0478 273.0952 15.19161580349072
GOES 17                 
1 43226U 18022A   24161.31716183 -.00000091  00000+0  00000+0 0  9993
2 43226   0.0459 145.6624 0000471 324.0441 157.9252  1.00271947 23024
LKW-4                   
1 43236U 18025A   24161.63500947  .00012903  00000+0  55122-3 0  9994
2 43236  97.5591 293.7939 0001886 204.2764 155.8384 15.23002417346558
ZHUHAI-1 OHS-01         
1 43439U 18040A   24161.87932481  .00056847  00000+0  98273-3 0  9993
2 43439  97.1264 208.8633 0003875 340.4868  19.6235 15.50777227340411
ZHUHAI-1 OVS-02         
1 43440U 18040B   24161.87795802  .00019693  00000+0  73803-3 0  9999
2 43440  97.1201 208.6369 0007519  38.9764 321.2017 15.27267419340377
ZHUHAI-1 OHS-02         
1 43441U 18040C   24161.84591638  .00021897  00000+0  77830-3 0  9991
2 43441  97.1398 212.0899 0012865   0.2153 359.9091 15.28936827340373
ZHUHAI-1 OHS-04         
1 43443U 18040E   24161.88063618  .00055969  00000+0  94586-3 0  9993
2 43443  97.1340 210.2776 0000788   1.2099 358.9156 15.51428284340434
GAOFEN-6                
1 43484U 18048A   24161.85044351  .00001800  00000+0  26534-3 0  9999
2 43484  97.8637 236.4215 0012048  43.0759 317.1392 14.76490712324580
LUOJIA-1 01             
1 43485U 18048B   24161.86550447  .00004149  00000+0  53830-3 0  9997
2 43485  97.8748 240.7326 0010532  23.6614 336.5081 14.81259938324786
PAKTES 1A               
1 43529U 18056A   24161.87038458  .00004244  00000+0  41667-3 0  9990
2 43529  98.0346 283.8266 0024519  36.7608 323.5286 14.92526647321664
PRSS 1                  
1 43530U 18056B   24161.81665940  .00002219  00000+0  30565-3 0  9993
2 43530  97.8642 236.4687 0001185  97.6031 262.5315 14.79216246319302
HAIYANG-1C              
1 43609U 18068A   24161.79372789  .00000403  00000+0  15991-3 0  9995
2 43609  98.6061 230.1773 0010213 118.5537 241.6677 14.34104908301397
SSTL S1-4               
1 43618U 18071A   24161.87728587  .00002282  00000+0  21436-3 0  9997
2 43618  97.6039  48.6174 0007234 105.8098 254.3921 14.94882360312710
HAIYANG-2B              
1 43655U 18081A   24161.87874845 -.00000032  00000+0  12055-4 0  9998
2 43655  99.3357 170.4750 0002178  83.7059 276.4341 13.79303370283281
CZ-4B R/B               
1 43656U 18081B   24161.84053950  .00000458  00000+0  15537-3 0  9990
2 43656  99.4446   7.6991 0205706 227.7740 130.5827 14.31234683293806
CFOSAT                  
1 43662U 18083A   24161.88494582  .00007077  00000+0  36795-3 0  9996
2 43662  97.3745 176.6767 0000830 131.2411 228.8894 15.16364317310790
2018-083B               
1 43663U 18083B   24161.86473923  .00079044  00000+0  11181-2 0  9995
2 43663  97.3231 194.8626 0003342 235.5048 124.5892 15.56251006312080
2018-083C               
1 43664U 18083C   24161.84487045  .00031332  00000+0  73771-3 0  9996
2 43664  97.3416 188.6935 0004432 290.3429  69.7341 15.41882914311791
2018-083D               
1 43665U 18083D   24161.84443771  .00032932  00000+0  75141-3 0  9995
2 43665  97.3413 189.6641 0005233 288.7951  71.2728 15.42812355311841
2018-083G               
1 43668U 18083G   24161.87616904  .00115024  00000+0  12938-2 0  9999
2 43668  97.3299 194.4233 0003722 220.6568 139.4412 15.62201530312237
TEN-KOH                 
1 43677U 18084G   24161.85086018  .00005501  00000+0  49478-3 0  9993
2 43677  98.0632 315.1667 0015008  46.6028 313.6439 14.96000235305621
DIWATA-2B               
1 43678U 18084H   24161.84670356  .00003379  00000+0  31218-3 0  9991
2 43678  98.0710 319.6199 0010124  61.0886 299.1348 14.95275978305821
STARS-AO                
1 43679U 18084J   24161.49055362  .00008010  00000+0  61498-3 0  9997
2 43679  98.0553 325.1758 0003720 121.0529 239.1060 15.02046535306117
AUTCUBE 2               
1 43681U 18084K   24161.68527433  .00005918  00000+0  48507-3 0  9994
2 43681  98.0673 322.2885 0008620  40.2138 319.9720 14.99636331305959
METOP-C                 
1 43689U 18087A   24161.82083183  .00000313  00000+0  16324-3 0  9996
2 43689  98.7237 221.1835 0003222 104.9722 255.1812 14.21487099290071
ES'HAIL 2               
1 43700U 18090A   24161.28821286  .00000143  00000+0  00000+0 0  9999
2 43700   0.0160  52.5784 0001654  65.5920 269.5410  1.00274177 20274
TIANPING 1B             
1 43714U 18094E   24161.84480242  .00019503  00000+0  46732-3 0  9999
2 43714  97.3684 179.9300 0006490 303.1682  56.8941 15.41438588309584
MOHAMMED VI-B           
1 43717U 18095A   24161.80604007  .00001850  00000+0  26902-3 0  9999
2 43717  97.9548 233.7180 0000783 113.1789 246.9504 14.77109439299171
HYSIS                   
1 43719U 18096A   24161.81462981  .00003027  00000+0  41930-3 0  9992
2 43719  97.8657 225.8888 0001323  45.3137 314.8182 14.78718027298451
COSMOS 2530             
1 43751U 18097A   24161.85624955  .00000029  00000+0  13669-3 0  9991
2 43751  82.5139 319.9369 0019617 201.6793 158.3458 12.42882739250784
COSMOS 2531             
1 43752U 18097B   24161.80289790  .00000041  00000+0  22512-3 0  9992
2 43752  82.5185 320.7592 0016574 219.2566 140.7312 12.42889930250779
